[{"OBJECT_NAME":"DMSP 5D-3 F18 (USA 210)","OBJECT_ID":"2009-057A","EPOCH":"2026-03-14T22:41:38.175072","MEAN_MOTION":14.14839583,"ECCENTRICITY":0.00114178,"INCLINATION":98.897,"RA_OF_ASC_NODE":54.9575,"ARG_OF_PERICENTER":153.5771,"MEAN_ANOMALY":206.5987,"EPHEMERIS_TYPE":0,"CLASSIFICATION_TYPE":"U","NORAD_CAT_ID":35951,"ELEMENT_SET_NO":999,"REV_AT_EPOCH":84626,"BSTAR":0.00017107351,"MEAN_MOTION_DOT":2.86e-6,"MEAN_MOTION_DDOT":0},{"OBJECT_NAME":"PROBA-2","OBJECT_ID":"2009-059B","EPOCH":"2026-03-14T17:47:03.287328","MEAN_MOTION":14.5479549,"ECCENTRICITY":0.0012614,"INCLINATION":98.2435,"RA_OF_ASC_NODE":258.4038,"ARG_OF_PERICENTER":207.7325,"MEAN_ANOMALY":152.32,"EPHEMERIS_TYPE":0,"CLASSIFICATION_TYPE":"U","NORAD_CAT_ID":36037,"ELEMENT_SET_NO":999,"REV_AT_EPOCH":86779,"BSTAR":9.1586446e-5,"MEAN_MOTION_DOT":3.48e-6,"MEAN_MOTION_DDOT":0},{"OBJECT_NAME":"YAOGAN-7","OBJECT_ID":"2009-069A","EPOCH":"2026-03-14T21:58:16.028256","MEAN_MOTION":14.77902405,"ECCENTRICITY":0.00243585,"INCLINATION":98.0202,"RA_OF_ASC_NODE":320.3038,"ARG_OF_PERICENTER":346.5865,"MEAN_ANOMALY":13.4695,"EPHEMERIS_TYPE":0,"CLASSIFICATION_TYPE":"U","NORAD_CAT_ID":36110,"ELEMENT_SET_NO":999,"REV_AT_EPOCH":87570,"BSTAR":0.00011584078,"MEAN_MOTION_DOT":7.84e-6,"MEAN_MOTION_DDOT":0},{"OBJECT_NAME":"XIWANG-1 (HOPE-1)","OBJECT_ID":"2009-072B","EPOCH":"2026-03-14T22:17:40.386624","MEAN_MOTION":13.16436527,"ECCENTRICITY":0.00081319,"INCLINATION":100.3916,"RA_OF_ASC_NODE":29.3111,"ARG_OF_PERICENTER":88.3987,"MEAN_ANOMALY":271.8057,"EPHEMERIS_TYPE":0,"CLASSIFICATION_TYPE":"U","NORAD_CAT_ID":36122,"ELEMENT_SET_NO":999,"REV_AT_EPOCH":78060,"BSTAR":0.00061260518,"MEAN_MOTION_DOT":1.9e-6,"MEAN_MOTION_DDOT":0},{"OBJECT_NAME":"RADUGA-1M 2","OBJECT_ID":"2010-002A","EPOCH":"2026-03-14T20:38:28.288896","MEAN_MOTION":0.98967166,"ECCENTRICITY":0.00082254,"INCLINATION":3.3734,"RA_OF_ASC_NODE":80.0341,"ARG_OF_PERICENTER":253.1001,"MEAN_ANOMALY":180.6852,"EPHEMERIS_TYPE":0,"CLASSIFICATION_TYPE":"U","NORAD_CAT_ID":36358,"ELEMENT_SET_NO":999,"REV_AT_EPOCH":4909,"BSTAR":0,"MEAN_MOTION_DOT":-6.0e-8,"MEAN_MOTION_DDOT":0},{"OBJECT_NAME":"COSMOS 2463","OBJECT_ID":"2010-017A","EPOCH":"2026-03-14T22:26:08.772000","MEAN_MOTION":13.71658513,"ECCENTRICITY":0.00369498,"INCLINATION":82.9623,"RA_OF_ASC_NODE":318.9787,"ARG_OF_PERICENTER":33.3763,"MEAN_ANOMALY":338.2322,"EPHEMERIS_TYPE":0,"CLASSIFICATION_TYPE":"U","NORAD_CAT_ID":36519,"ELEMENT_SET_NO":999,"REV_AT_EPOCH":79501,"BSTAR":5.668205e-5,"MEAN_MOTION_DOT":6.7e-7,"MEAN_MOTION_DDOT":0},{"OBJECT_NAME":"CARTOSAT-2B","OBJECT_ID":"2010-035A","EPOCH":"2026-03-13T10:48:36.808992","MEAN_MOTION":14.786617,"ECCENTRICITY":0.00121418,"INCLINATION":97.9147,"RA_OF_ASC_NODE":123.6633,"ARG_OF_PERICENTER":136.3975,"MEAN_ANOMALY":223.8198,"EPHEMERIS_TYPE":0,"CLASSIFICATION_TYPE":"U","NORAD_CAT_ID":36795,"ELEMENT_SET_NO":999,"REV_AT_EPOCH":84570,"BSTAR":0.00019486608,"MEAN_MOTION_DOT":1.378e-5,"MEAN_MOTION_DDOT":0},{"OBJECT_NAME":"AISSAT 1","OBJECT_ID":"2010-035C","EPOCH":"2026-03-14T23:21:59.780448","MEAN_MOTION":14.96924574,"ECCENTRICITY":0.00092585,"INCLINATION":98.1017,"RA_OF_ASC_NODE":329.8783,"ARG_OF_PERICENTER":17.5993,"MEAN_ANOMALY":342.5547,"EPHEMERIS_TYPE":0,"CLASSIFICATION_TYPE":"U","NORAD_CAT_ID":36797,"ELEMENT_SET_NO":999,"REV_AT_EPOCH":85012,"BSTAR":0.00029100795,"MEAN_MOTION_DOT":3.282e-5,"MEAN_MOTION_DDOT":0},{"OBJECT_NAME":"TISAT 1","OBJECT_ID":"2010-035E","EPOCH":"2026-03-14T19:12:24.385536","MEAN_MOTION":15.27894692,"ECCENTRICITY":0.00020217,"INCLINATION":98.0644,"RA_OF_ASC_NODE":12.3029,"ARG_OF_PERICENTER":152.2134,"MEAN_ANOMALY":207.9212,"EPHEMERIS_TYPE":0,"CLASSIFICATION_TYPE":"U","NORAD_CAT_ID":36799,"ELEMENT_SET_NO":999,"REV_AT_EPOCH":85327,"BSTAR":0.0011309396,"MEAN_MOTION_DOT":0.0003081,"MEAN_MOTION_DDOT":0},{"OBJECT_NAME":"YAOGAN-10","OBJECT_ID":"2010-038A","EPOCH":"2026-03-14T23:13:44.806944","MEAN_MOTION":14.85039111,"ECCENTRICITY":0.00016971,"INCLINATION":97.9082,"RA_OF_ASC_NODE":98.1026,"ARG_OF_PERICENTER":90.2471,"MEAN_ANOMALY":358.7181,"EPHEMERIS_TYPE":0,"CLASSIFICATION_TYPE":"U","NORAD_CAT_ID":36834,"ELEMENT_SET_NO":999,"REV_AT_EPOCH":84322,"BSTAR":0.00036250413,"MEAN_MOTION_DOT":3.041e-5,"MEAN_MOTION_DDOT":0},{"OBJECT_NAME":"SHIJIAN-6 04B (SJ-6 04B)","OBJECT_ID":"2010-051B","EPOCH":"2026-03-14T21:59:02.354208","MEAN_MOTION":14.99127626,"ECCENTRICITY":0.00091266,"INCLINATION":97.8742,"RA_OF_ASC_NODE":78.3588,"ARG_OF_PERICENTER":274.1669,"MEAN_ANOMALY":85.851,"EPHEMERIS_TYPE":0,"CLASSIFICATION_TYPE":"U","NORAD_CAT_ID":37180,"ELEMENT_SET_NO":999,"REV_AT_EPOCH":84155,"BSTAR":4.5568783e-5,"MEAN_MOTION_DOT":4.93e-6,"MEAN_MOTION_DDOT":0},{"OBJECT_NAME":"FENGYUN 3B","OBJECT_ID":"2010-059A","EPOCH":"2026-03-14T23:18:32.213088","MEAN_MOTION":14.14819517,"ECCENTRICITY":0.0023153,"INCLINATION":98.9763,"RA_OF_ASC_NODE":119.5352,"ARG_OF_PERICENTER":93.8267,"MEAN_ANOMALY":2.0542,"EPHEMERIS_TYPE":0,"CLASSIFICATION_TYPE":"U","NORAD_CAT_ID":37214,"ELEMENT_SET_NO":999,"REV_AT_EPOCH":79410,"BSTAR":8.9179336e-5,"MEAN_MOTION_DOT":1.27e-6,"MEAN_MOTION_DDOT":0},{"OBJECT_NAME":"COSMO-SKYMED 4","OBJECT_ID":"2010-060A","EPOCH":"2026-03-14T22:17:45.109248","MEAN_MOTION":14.8214706,"ECCENTRICITY":0.00015091,"INCLINATION":97.887,"RA_OF_ASC_NODE":258.8894,"ARG_OF_PERICENTER":85.665,"MEAN_ANOMALY":274.4736,"EPHEMERIS_TYPE":0,"CLASSIFICATION_TYPE":"U","NORAD_CAT_ID":37216,"ELEMENT_SET_NO":999,"REV_AT_EPOCH":83060,"BSTAR":0.0001272242,"MEAN_MOTION_DOT":9.61e-6,"MEAN_MOTION_DDOT":0},{"OBJECT_NAME":"O/OREOS (USA 219)","OBJECT_ID":"2010-062C","EPOCH":"2026-03-14T22:57:55.925856","MEAN_MOTION":14.93310617,"ECCENTRICITY":0.00167179,"INCLINATION":71.9705,"RA_OF_ASC_NODE":293.7197,"ARG_OF_PERICENTER":247.8216,"MEAN_ANOMALY":112.1181,"EPHEMERIS_TYPE":0,"CLASSIFICATION_TYPE":"U","NORAD_CAT_ID":37224,"ELEMENT_SET_NO":999,"REV_AT_EPOCH":10257,"BSTAR":0.00027149929,"MEAN_MOTION_DOT":2.791e-5,"MEAN_MOTION_DDOT":0},{"OBJECT_NAME":"ELEKTRO-L 1 (GOMS 2)","OBJECT_ID":"2011-001A","EPOCH":"2026-03-14T21:50:58.835616","MEAN_MOTION":1.00170998,"ECCENTRICITY":0.00035764,"INCLINATION":9.4718,"RA_OF_ASC_NODE":55.4463,"ARG_OF_PERICENTER":14.5573,"MEAN_ANOMALY":356.6937,"EPHEMERIS_TYPE":0,"CLASSIFICATION_TYPE":"U","NORAD_CAT_ID":37344,"ELEMENT_SET_NO":999,"REV_AT_EPOCH":5554,"BSTAR":0,"MEAN_MOTION_DOT":-2.46e-6,"MEAN_MOTION_DDOT":0},{"OBJECT_NAME":"RESOURCESAT-2","OBJECT_ID":"2011-015A","EPOCH":"2026-03-13T14:00:14.726592","MEAN_MOTION":14.21492639,"ECCENTRICITY":0.00065034,"INCLINATION":98.771,"RA_OF_ASC_NODE":140.6462,"ARG_OF_PERICENTER":129.1127,"MEAN_ANOMALY":231.063,"EPHEMERIS_TYPE":0,"CLASSIFICATION_TYPE":"U","NORAD_CAT_ID":37387,"ELEMENT_SET_NO":999,"REV_AT_EPOCH":77259,"BSTAR":-0.00010660624,"MEAN_MOTION_DOT":-2.78e-6,"MEAN_MOTION_DDOT":0},{"OBJECT_NAME":"YOUTHSAT","OBJECT_ID":"2011-015B","EPOCH":"2026-03-14T21:30:22.623552","MEAN_MOTION":14.25585942,"ECCENTRICITY":0.00132768,"INCLINATION":98.3601,"RA_OF_ASC_NODE":52.247,"ARG_OF_PERICENTER":258.258,"MEAN_ANOMALY":157.7597,"EPHEMERIS_TYPE":0,"CLASSIFICATION_TYPE":"U","NORAD_CAT_ID":37388,"ELEMENT_SET_NO":999,"REV_AT_EPOCH":77420,"BSTAR":0.0001314448,"MEAN_MOTION_DOT":2.7e-6,"MEAN_MOTION_DDOT":0}]
