DMSP 5D-3 F18 (USA 210) 
1 35951U 09057A   26073.94558073  .00000286  00000+0  17107-3 0  9997
2 35951  98.8970  54.9575 0011417 153.5771 206.5987 14.14839583846263
PROBA-2                 
1 36037U 09059B   26073.74101027  .00000348  00000+0  91586-4 0  9999
2 36037  98.2435 258.4038 0012614 207.7325 152.3200 14.54795490867790
YAOGAN-7                
1 36110U 09069A   26073.91546329  .00000784  00000+0  11584-3 0  9992
2 36110  98.0202 320.3038 0024358 346.5865  13.4695 14.77902405875706
XIWANG-1 (HOPE-1)       
1 36122U 09072B   26073.92893966  .00000190  00000+0  61261-3 0  9990
2 36122 100.3916  29.3111 0008131  88.3987 271.8057 13.16436527780608
RADUGA-1M 2             
1 36358U 10002A   26073.86004964 -.00000006  00000+0  00000+0 0  9998
2 36358   3.3734  80.0341 0008225 253.1001 180.6852  0.98967166 49096
COSMOS 2463             
1 36519U 10017A   26073.93482375  .00000067  00000+0  56682-4 0  9995
2 36519  82.9623 318.9787 0036949  33.3763 338.2322 13.71658513795010
CARTOSAT-2B             
1 36795U 10035A   26072.45042603  .00001378  00000+0  19487-3 0  9990
2 36795  97.9147 123.6633 0012141 136.3975 223.8198 14.78661700845703
AISSAT 1                
1 36797U 10035C   26073.97360857  .00003282  00000+0  29101-3 0  9994
2 36797  98.1017 329.8783 0009258  17.5993 342.5547 14.96924574850125
TISAT 1                 
1 36799U 10035E   26073.80028224  .00030810  00000+0  11309-2 0  9994
2 36799  98.0644  12.3029 0002021 152.2134 207.9212 15.27894692853278
YAOGAN-10               
1 36834U 10038A   26073.96787971  .00003041  00000+0  36250-3 0  9994
2 36834  97.9082  98.1026 0001697  90.2471 358.7181 14.85039111843228
SHIJIAN-6 04B (SJ-6 04B)
1 37180U 10051B   26073.91599947  .00000493  00000+0  45569-4 0  9995
2 37180  97.8742  78.3588 0009126 274.1669  85.8510 14.99127626841557
FENGYUN 3B              
1 37214U 10059A   26073.97120617  .00000127  00000+0  89179-4 0  9990
2 37214  98.9763 119.5352 0023153  93.8267   2.0542 14.14819517794101
COSMO-SKYMED 4          
1 37216U 10060A   26073.92899432  .00000961  00000+0  12722-3 0  9992
2 37216  97.8870 258.8894 0001509  85.6650 274.4736 14.82147060830602
O/OREOS (USA 219)       
1 37224U 10062C   26073.95689729  .00002791  00000+0  27150-3 0  9996
2 37224  71.9705 293.7197 0016717 247.8216 112.1181 14.93310617102574
ELEKTRO-L 1 (GOMS 2)    
1 37344U 11001A   26073.91040319 -.00000246  00000+0  00000+0 0  9990
2 37344   9.4718  55.4463 0003576  14.5573 356.6937  1.00170998 55548
RESOURCESAT-2           
1 37387U 11015A   26072.58350378 -.00000278  00000+0 -10661-3 0  9997
2 37387  98.7710 140.6462 0006503 129.1127 231.0630 14.21492639772598
YOUTHSAT                
1 37388U 11015B   26073.89609518  .00000270  00000+0  13144-3 0  9995
2 37388  98.3601  52.2470 0013276 258.2580 157.7597 14.25585942774203
